{"type":"FeatureCollection","features":[{"type":"Feature","geometry":{"type":"Point","coordinates":[152.8853,-30.0559]},"properties":{"d":"2026-09-20","t":"0241","frp":2.6,"b":329.3,"c":1,"s":"N21","n":0}},{"type":"Feature","geometry":{"type":"Point","coordinates":[151.1798,-29.8355]},"properties":{"d":"2026-09-20","t":"0241","frp":32.7,"b":341.6,"c":1,"s":"N21","n":0}},{"type":"Feature","geometry":{"type":"Point","coordinates":[151.1869,-29.8352]},"properties":{"d":"2026-09-20","t":"0241","frp":32.7,"b":367.0,"c":2,"s":"N21","n":0}},{"type":"Feature","geometry":{"type":"Point","coordinates":[151.1939,-29.8348]},"properties":{"d":"2026-09-20","t":"0241","frp":21.7,"b":333.9,"c":1,"s":"N21","n":0}},{"type":"Feature","geometry":{"type":"Point","coordinates":[152.6064,-29.8313]},"properties":{"d":"2026-09-20","t":"0241","frp":6.4,"b":329.6,"c":0,"s":"N21","n":0}},{"type":"Feature","geometry":{"type":"Point","coordinates":[151.1751,-29.8301]},"properties":{"d":"2026-09-20","t":"0241","frp":171.2,"b":344.6,"c":1,"s":"N21","n":0}},{"type":"Feature","geometry":{"type":"Point","coordinates":[151.1888,-29.8295]},"properties":{"d":"2026-09-20","t":"0241","frp":110.9,"b":352.1,"c":1,"s":"N21","n":0}},{"type":"Feature","geometry":{"type":"Point","coordinates":[151.1957,-29.8292]},"properties":{"d":"2026-09-20","t":"0241","frp":110.9,"b":367.0,"c":2,"s":"N21","n":0}},{"type":"Feature","geometry":{"type":"Point","coordinates":[151.2029,-29.8289]},"properties":{"d":"2026-09-20","t":"0241","frp":55.5,"b":367.0,"c":2,"s":"N21","n":0}},{"type":"Feature","geometry":{"type":"Point","coordinates":[151.1794,-29.8287]},"properties":{"d":"2026-09-20","t":"0241","frp":88.1,"b":345.4,"c":1,"s":"N21","n":0}},{"type":"Feature","geometry":{"type":"Point","coordinates":[151.1861,-29.8284]},"properties":{"d":"2026-09-20","t":"0241","frp":88.1,"b":367.0,"c":2,"s":"N21","n":0}},{"type":"Feature","geometry":{"type":"Point","coordinates":[151.193,-29.8281]},"properties":{"d":"2026-09-20","t":"0241","frp":121.4,"b":367.0,"c":2,"s":"N21","n":0}},{"type":"Feature","geometry":{"type":"Point","coordinates":[152.6062,-29.8277]},"properties":{"d":"2026-09-20","t":"0241","frp":8.4,"b":338.6,"c":1,"s":"N21","n":0}},{"type":"Feature","geometry":{"type":"Point","coordinates":[151.2001,-29.8277]},"properties":{"d":"2026-09-20","t":"0241","frp":121.4,"b":207.4,"c":0,"s":"N21","n":0}},{"type":"Feature","geometry":{"type":"Point","coordinates":[151.2072,-29.8273]},"properties":{"d":"2026-09-20","t":"0241","frp":164.7,"b":367.0,"c":2,"s":"N21","n":0}},{"type":"Feature","geometry":{"type":"Point","coordinates":[152.6052,-29.8251]},"properties":{"d":"2026-09-20","t":"0241","frp":6.4,"b":338.0,"c":1,"s":"N21","n":0}},{"type":"Feature","geometry":{"type":"Point","coordinates":[151.1808,-29.823]},"properties":{"d":"2026-09-20","t":"0241","frp":10.5,"b":330.9,"c":0,"s":"N21","n":0}},{"type":"Feature","geometry":{"type":"Point","coordinates":[151.195,-29.8224]},"properties":{"d":"2026-09-20","t":"0241","frp":77.8,"b":348.4,"c":1,"s":"N21","n":0}},{"type":"Feature","geometry":{"type":"Point","coordinates":[151.2021,-29.8221]},"properties":{"d":"2026-09-20","t":"0241","frp":160.0,"b":367.0,"c":0,"s":"N21","n":0}},{"type":"Feature","geometry":{"type":"Point","coordinates":[151.209,-29.8218]},"properties":{"d":"2026-09-20","t":"0241","frp":160.0,"b":339.7,"c":1,"s":"N21","n":0}},{"type":"Feature","geometry":{"type":"Point","coordinates":[151.1923,-29.8212]},"properties":{"d":"2026-09-20","t":"0241","frp":121.4,"b":334.1,"c":1,"s":"N21","n":0}},{"type":"Feature","geometry":{"type":"Point","coordinates":[151.1994,-29.8209]},"properties":{"d":"2026-09-20","t":"0241","frp":121.4,"b":207.4,"c":0,"s":"N21","n":0}},{"type":"Feature","geometry":{"type":"Point","coordinates":[151.2063,-29.8206]},"properties":{"d":"2026-09-20","t":"0241","frp":164.7,"b":367.0,"c":2,"s":"N21","n":0}},{"type":"Feature","geometry":{"type":"Point","coordinates":[151.1871,-29.8159]},"properties":{"d":"2026-09-20","t":"0241","frp":77.8,"b":338.8,"c":1,"s":"N21","n":0}},{"type":"Feature","geometry":{"type":"Point","coordinates":[151.201,-29.8153]},"properties":{"d":"2026-09-20","t":"0241","frp":160.0,"b":346.8,"c":1,"s":"N21","n":0}},{"type":"Feature","geometry":{"type":"Point","coordinates":[152.6189,-29.8116]},"properties":{"d":"2026-09-20","t":"0241","frp":6.1,"b":336.0,"c":1,"s":"N21","n":0}},{"type":"Feature","geometry":{"type":"Point","coordinates":[152.504,-29.8052]},"properties":{"d":"2026-09-20","t":"0241","frp":14.5,"b":335.8,"c":1,"s":"N21","n":0}},{"type":"Feature","geometry":{"type":"Point","coordinates":[152.6309,-29.7537]},"properties":{"d":"2026-09-20","t":"0241","frp":6.4,"b":338.6,"c":1,"s":"N21","n":0}},{"type":"Feature","geometry":{"type":"Point","coordinates":[152.6328,-29.7505]},"properties":{"d":"2026-09-20","t":"0241","frp":7.8,"b":367.0,"c":2,"s":"N21","n":0}},{"type":"Feature","geometry":{"type":"Point","coordinates":[152.6304,-29.7474]},"properties":{"d":"2026-09-20","t":"0241","frp":6.4,"b":336.4,"c":1,"s":"N21","n":0}},{"type":"Feature","geometry":{"type":"Point","coordinates":[152.627,-29.7445]},"properties":{"d":"2026-09-20","t":"0241","frp":7.8,"b":332.9,"c":1,"s":"N21","n":0}},{"type":"Feature","geometry":{"type":"Point","coordinates":[152.6323,-29.7442]},"properties":{"d":"2026-09-20","t":"0241","frp":7.8,"b":331.0,"c":1,"s":"N21","n":0}},{"type":"Feature","geometry":{"type":"Point","coordinates":[152.775,-29.7231]},"properties":{"d":"2026-09-20","t":"0241","frp":16.2,"b":354.9,"c":1,"s":"N21","n":0}},{"type":"Feature","geometry":{"type":"Point","coordinates":[152.7728,-29.7209]},"properties":{"d":"2026-09-20","t":"0241","frp":12.9,"b":353.3,"c":1,"s":"N21","n":0}},{"type":"Feature","geometry":{"type":"Point","coordinates":[152.7781,-29.7206]},"properties":{"d":"2026-09-20","t":"0241","frp":7.5,"b":331.4,"c":1,"s":"N21","n":0}},{"type":"Feature","geometry":{"type":"Point","coordinates":[152.5189,-29.2151]},"properties":{"d":"2026-09-20","t":"0241","frp":6.8,"b":338.8,"c":1,"s":"N21","n":0}},{"type":"Feature","geometry":{"type":"Point","coordinates":[152.516,-29.2116]},"properties":{"d":"2026-09-20","t":"0241","frp":8.8,"b":333.2,"c":1,"s":"N21","n":0}},{"type":"Feature","geometry":{"type":"Point","coordinates":[152.5219,-29.2113]},"properties":{"d":"2026-09-20","t":"0241","frp":8.8,"b":345.9,"c":1,"s":"N21","n":0}},{"type":"Feature","geometry":{"type":"Point","coordinates":[152.5178,-29.2087]},"properties":{"d":"2026-09-20","t":"0241","frp":7.8,"b":330.7,"c":0,"s":"N21","n":0}},{"type":"Feature","geometry":{"type":"Point","coordinates":[152.493,-28.9882]},"properties":{"d":"2026-09-20","t":"0241","frp":12.8,"b":341.8,"c":1,"s":"N21","n":0}},{"type":"Feature","geometry":{"type":"Point","coordinates":[152.5069,-28.9873]},"properties":{"d":"2026-09-20","t":"0241","frp":11.9,"b":347.6,"c":1,"s":"N21","n":0}},{"type":"Feature","geometry":{"type":"Point","coordinates":[152.5063,-28.9683]},"properties":{"d":"2026-09-20","t":"0241","frp":10.4,"b":339.9,"c":1,"s":"N21","n":0}},{"type":"Feature","geometry":{"type":"Point","coordinates":[152.511,-28.968]},"properties":{"d":"2026-09-20","t":"0241","frp":13.9,"b":367.0,"c":2,"s":"N21","n":0}},{"type":"Feature","geometry":{"type":"Point","coordinates":[152.5159,-28.9678]},"properties":{"d":"2026-09-20","t":"0241","frp":13.9,"b":343.0,"c":1,"s":"N21","n":0}},{"type":"Feature","geometry":{"type":"Point","coordinates":[152.506,-28.962]},"properties":{"d":"2026-09-20","t":"0241","frp":17.7,"b":367.0,"c":2,"s":"N21","n":0}},{"type":"Feature","geometry":{"type":"Point","coordinates":[151.8019,-28.9481]},"properties":{"d":"2026-09-20","t":"0241","frp":11.2,"b":340.3,"c":1,"s":"N21","n":0}},{"type":"Feature","geometry":{"type":"Point","coordinates":[151.7981,-28.9428]},"properties":{"d":"2026-09-20","t":"0241","frp":23.0,"b":348.6,"c":1,"s":"N21","n":0}},{"type":"Feature","geometry":{"type":"Point","coordinates":[151.8012,-28.9415]},"properties":{"d":"2026-09-20","t":"0241","frp":11.2,"b":346.6,"c":1,"s":"N21","n":0}},{"type":"Feature","geometry":{"type":"Point","coordinates":[151.802,-28.9294]},"properties":{"d":"2026-09-20","t":"0241","frp":16.1,"b":350.9,"c":1,"s":"N21","n":0}},{"type":"Feature","geometry":{"type":"Point","coordinates":[151.7976,-28.9285]},"properties":{"d":"2026-09-20","t":"0241","frp":15.2,"b":336.3,"c":1,"s":"N21","n":0}},{"type":"Feature","geometry":{"type":"Point","coordinates":[151.8048,-28.9282]},"properties":{"d":"2026-09-20","t":"0241","frp":18.6,"b":349.0,"c":1,"s":"N21","n":0}},{"type":"Feature","geometry":{"type":"Point","coordinates":[151.8067,-28.9226]},"properties":{"d":"2026-09-20","t":"0241","frp":13.2,"b":346.6,"c":1,"s":"N21","n":0}},{"type":"Feature","geometry":{"type":"Point","coordinates":[151.8054,-28.9161]},"properties":{"d":"2026-09-20","t":"0241","frp":13.2,"b":367.0,"c":2,"s":"N21","n":0}},{"type":"Feature","geometry":{"type":"Point","coordinates":[151.8129,-28.9091]},"properties":{"d":"2026-09-20","t":"0241","frp":19.7,"b":351.4,"c":1,"s":"N21","n":0}},{"type":"Feature","geometry":{"type":"Point","coordinates":[151.812,-28.9025]},"properties":{"d":"2026-09-20","t":"0241","frp":19.7,"b":367.0,"c":2,"s":"N21","n":0}},{"type":"Feature","geometry":{"type":"Point","coordinates":[151.7697,-28.7621]},"properties":{"d":"2026-09-20","t":"0241","frp":15.2,"b":367.0,"c":2,"s":"N21","n":0}},{"type":"Feature","geometry":{"type":"Point","coordinates":[151.7742,-28.7608]},"properties":{"d":"2026-09-20","t":"0241","frp":15.2,"b":367.0,"c":2,"s":"N21","n":0}},{"type":"Feature","geometry":{"type":"Point","coordinates":[151.7706,-28.7554]},"properties":{"d":"2026-09-20","t":"0241","frp":6.1,"b":333.3,"c":1,"s":"N21","n":0}},{"type":"Feature","geometry":{"type":"Point","coordinates":[152.1998,-28.5355]},"properties":{"d":"2026-09-20","t":"0241","frp":14.8,"b":334.7,"c":1,"s":"N21","n":0}},{"type":"Feature","geometry":{"type":"Point","coordinates":[152.1987,-28.5339]},"properties":{"d":"2026-09-20","t":"0241","frp":13.9,"b":355.1,"c":1,"s":"N21","n":0}},{"type":"Feature","geometry":{"type":"Point","coordinates":[152.1947,-28.5294]},"properties":{"d":"2026-09-20","t":"0241","frp":18.2,"b":344.1,"c":1,"s":"N21","n":0}},{"type":"Feature","geometry":{"type":"Point","coordinates":[152.1997,-28.5291]},"properties":{"d":"2026-09-20","t":"0241","frp":14.8,"b":367.0,"c":2,"s":"N21","n":0}},{"type":"Feature","geometry":{"type":"Point","coordinates":[152.2051,-28.5288]},"properties":{"d":"2026-09-20","t":"0241","frp":14.8,"b":351.1,"c":1,"s":"N21","n":0}},{"type":"Feature","geometry":{"type":"Point","coordinates":[152.1938,-28.5278]},"properties":{"d":"2026-09-20","t":"0241","frp":13.9,"b":334.5,"c":0,"s":"N21","n":0}},{"type":"Feature","geometry":{"type":"Point","coordinates":[152.1988,-28.5275]},"properties":{"d":"2026-09-20","t":"0241","frp":13.9,"b":351.4,"c":1,"s":"N21","n":0}},{"type":"Feature","geometry":{"type":"Point","coordinates":[152.204,-28.5272]},"properties":{"d":"2026-09-20","t":"0241","frp":28.7,"b":367.0,"c":2,"s":"N21","n":0}},{"type":"Feature","geometry":{"type":"Point","coordinates":[152.9115,-28.5248]},"properties":{"d":"2026-09-20","t":"0241","frp":4.2,"b":330.3,"c":0,"s":"N21","n":0}},{"type":"Feature","geometry":{"type":"Point","coordinates":[152.2103,-28.5203]},"properties":{"d":"2026-09-20","t":"0241","frp":17.4,"b":331.6,"c":1,"s":"N21","n":0}},{"type":"Feature","geometry":{"type":"Point","coordinates":[152.2179,-28.5152]},"properties":{"d":"2026-09-20","t":"0241","frp":11.0,"b":343.1,"c":1,"s":"N21","n":0}},{"type":"Feature","geometry":{"type":"Point","coordinates":[152.2166,-28.5135]},"properties":{"d":"2026-09-20","t":"0241","frp":22.7,"b":367.0,"c":2,"s":"N21","n":0}},{"type":"Feature","geometry":{"type":"Point","coordinates":[152.2006,-28.5097]},"properties":{"d":"2026-09-20","t":"0241","frp":19.1,"b":367.0,"c":2,"s":"N21","n":0}},{"type":"Feature","geometry":{"type":"Point","coordinates":[152.2056,-28.5095]},"properties":{"d":"2026-09-20","t":"0241","frp":19.1,"b":367.0,"c":2,"s":"N21","n":0}},{"type":"Feature","geometry":{"type":"Point","coordinates":[152.2111,-28.5092]},"properties":{"d":"2026-09-20","t":"0241","frp":15.3,"b":367.0,"c":2,"s":"N21","n":0}},{"type":"Feature","geometry":{"type":"Point","coordinates":[152.2174,-28.5088]},"properties":{"d":"2026-09-20","t":"0241","frp":15.3,"b":350.7,"c":1,"s":"N21","n":0}},{"type":"Feature","geometry":{"type":"Point","coordinates":[152.1995,-28.5081]},"properties":{"d":"2026-09-20","t":"0241","frp":18.4,"b":367.0,"c":2,"s":"N21","n":0}},{"type":"Feature","geometry":{"type":"Point","coordinates":[152.2045,-28.5078]},"properties":{"d":"2026-09-20","t":"0241","frp":15.5,"b":367.0,"c":2,"s":"N21","n":0}},{"type":"Feature","geometry":{"type":"Point","coordinates":[152.2099,-28.5075]},"properties":{"d":"2026-09-20","t":"0241","frp":15.5,"b":352.0,"c":1,"s":"N21","n":0}},{"type":"Feature","geometry":{"type":"Point","coordinates":[152.1995,-28.4969]},"properties":{"d":"2026-09-20","t":"0241","frp":11.9,"b":340.7,"c":1,"s":"N21","n":0}},{"type":"Feature","geometry":{"type":"Point","coordinates":[152.1986,-28.4953]},"properties":{"d":"2026-09-20","t":"0241","frp":8.9,"b":335.8,"c":1,"s":"N21","n":0}},{"type":"Feature","geometry":{"type":"Point","coordinates":[152.1988,-28.4905]},"properties":{"d":"2026-09-20","t":"0241","frp":11.9,"b":354.7,"c":1,"s":"N21","n":0}},{"type":"Feature","geometry":{"type":"Point","coordinates":[152.1978,-28.4889]},"properties":{"d":"2026-09-20","t":"0241","frp":8.9,"b":346.9,"c":1,"s":"N21","n":0}},{"type":"Feature","geometry":{"type":"Point","coordinates":[152.2029,-28.4886]},"properties":{"d":"2026-09-20","t":"0241","frp":15.6,"b":337.2,"c":1,"s":"N21","n":0}},{"type":"Feature","geometry":{"type":"Point","coordinates":[152.1914,-28.4764]},"properties":{"d":"2026-09-20","t":"0241","frp":9.1,"b":336.2,"c":1,"s":"N21","n":0}},{"type":"Feature","geometry":{"type":"Point","coordinates":[152.1908,-28.47]},"properties":{"d":"2026-09-20","t":"0241","frp":8.1,"b":344.2,"c":1,"s":"N21","n":0}},{"type":"Feature","geometry":{"type":"Point","coordinates":[152.1965,-28.4697]},"properties":{"d":"2026-09-20","t":"0241","frp":8.1,"b":339.8,"c":1,"s":"N21","n":0}},{"type":"Feature","geometry":{"type":"Point","coordinates":[153.5013,-28.441]},"properties":{"d":"2026-09-20","t":"0241","frp":3.7,"b":328.0,"c":1,"s":"N21","n":0}},{"type":"Feature","geometry":{"type":"Point","coordinates":[152.3832,-27.9542]},"properties":{"d":"2026-09-20","t":"0241","frp":7.5,"b":331.9,"c":1,"s":"N21","n":0}},{"type":"Feature","geometry":{"type":"Point","coordinates":[152.3877,-27.954]},"properties":{"d":"2026-09-20","t":"0241","frp":7.5,"b":340.9,"c":1,"s":"N21","n":0}},{"type":"Feature","geometry":{"type":"Point","coordinates":[152.3816,-27.948]},"properties":{"d":"2026-09-20","t":"0241","frp":19.1,"b":350.5,"c":1,"s":"N21","n":0}},{"type":"Feature","geometry":{"type":"Point","coordinates":[152.3861,-27.9477]},"properties":{"d":"2026-09-20","t":"0241","frp":19.1,"b":367.0,"c":2,"s":"N21","n":0}},{"type":"Feature","geometry":{"type":"Point","coordinates":[152.4089,-27.8793]},"properties":{"d":"2026-09-20","t":"0241","frp":8.7,"b":347.7,"c":1,"s":"N21","n":0}},{"type":"Feature","geometry":{"type":"Point","coordinates":[152.4101,-27.8766]},"properties":{"d":"2026-09-20","t":"0241","frp":8.3,"b":342.3,"c":1,"s":"N21","n":0}},{"type":"Feature","geometry":{"type":"Point","coordinates":[152.4022,-27.8734]},"properties":{"d":"2026-09-20","t":"0241","frp":8.7,"b":350.2,"c":1,"s":"N21","n":0}},{"type":"Feature","geometry":{"type":"Point","coordinates":[152.4083,-27.873]},"properties":{"d":"2026-09-20","t":"0241","frp":8.7,"b":343.6,"c":1,"s":"N21","n":0}},{"type":"Feature","geometry":{"type":"Point","coordinates":[152.4042,-27.8706]},"properties":{"d":"2026-09-20","t":"0241","frp":13.1,"b":367.0,"c":2,"s":"N21","n":0}},{"type":"Feature","geometry":{"type":"Point","coordinates":[153.2585,-27.8661]},"properties":{"d":"2026-09-20","t":"0241","frp":7.3,"b":345.3,"c":1,"s":"N21","n":0}},{"type":"Feature","geometry":{"type":"Point","coordinates":[152.6509,-27.246]},"properties":{"d":"2026-09-20","t":"0241","frp":8.0,"b":337.3,"c":1,"s":"N21","n":0}},{"type":"Feature","geometry":{"type":"Point","coordinates":[152.6519,-27.2453]},"properties":{"d":"2026-09-20","t":"0241","frp":13.0,"b":339.4,"c":1,"s":"N21","n":0}},{"type":"Feature","geometry":{"type":"Point","coordinates":[152.6447,-27.2402]},"properties":{"d":"2026-09-20","t":"0241","frp":14.1,"b":344.9,"c":1,"s":"N21","n":0}},{"type":"Feature","geometry":{"type":"Point","coordinates":[152.6497,-27.2399]},"properties":{"d":"2026-09-20","t":"0241","frp":8.0,"b":336.1,"c":1,"s":"N21","n":0}},{"type":"Feature","geometry":{"type":"Point","coordinates":[152.6457,-27.2395]},"properties":{"d":"2026-09-20","t":"0241","frp":12.1,"b":354.1,"c":1,"s":"N21","n":0}},{"type":"Feature","geometry":{"type":"Point","coordinates":[152.0229,-27.0152]},"properties":{"d":"2026-09-20","t":"0241","frp":15.2,"b":353.3,"c":1,"s":"N21","n":0}},{"type":"Feature","geometry":{"type":"Point","coordinates":[152.3823,-26.7886]},"properties":{"d":"2026-09-20","t":"0241","frp":7.8,"b":340.5,"c":1,"s":"N21","n":0}},{"type":"Feature","geometry":{"type":"Point","coordinates":[152.4565,-26.5611]},"properties":{"d":"2026-09-20","t":"0241","frp":6.8,"b":339.4,"c":1,"s":"N21","n":0}},{"type":"Feature","geometry":{"type":"Point","coordinates":[150.4313,-26.3793]},"properties":{"d":"2026-09-20","t":"0243","frp":7.6,"b":334.1,"c":0,"s":"N21","n":0}},{"type":"Feature","geometry":{"type":"Point","coordinates":[152.7466,-26.0657]},"properties":{"d":"2026-09-20","t":"0243","frp":6.2,"b":344.4,"c":1,"s":"N21","n":0}},{"type":"Feature","geometry":{"type":"Point","coordinates":[150.1115,-22.8905]},"properties":{"d":"2026-09-20","t":"0243","frp":6.9,"b":335.2,"c":1,"s":"N21","n":0}},{"type":"Feature","geometry":{"type":"Point","coordinates":[149.5323,-9.9214]},"properties":{"d":"2026-09-20","t":"0247","frp":2.6,"b":327.1,"c":1,"s":"N21","n":0}},{"type":"Feature","geometry":{"type":"Point","coordinates":[149.5015,-9.8757]},"properties":{"d":"2026-09-20","t":"0247","frp":5.3,"b":331.1,"c":1,"s":"N21","n":0}},{"type":"Feature","geometry":{"type":"Point","coordinates":[148.7249,-9.6274]},"properties":{"d":"2026-09-20","t":"0247","frp":6.8,"b":347.4,"c":1,"s":"N21","n":0}},{"type":"Feature","geometry":{"type":"Point","coordinates":[148.7899,-9.3425]},"properties":{"d":"2026-09-20","t":"0247","frp":8.7,"b":326.9,"c":1,"s":"N21","n":0}},{"type":"Feature","geometry":{"type":"Point","coordinates":[148.7921,-9.3409]},"properties":{"d":"2026-09-20","t":"0247","frp":7.0,"b":339.2,"c":1,"s":"N21","n":0}},{"type":"Feature","geometry":{"type":"Point","coordinates":[124.6819,-17.8842]},"properties":{"d":"2026-09-20","t":"0037","frp":27.7,"b":319.0,"c":1,"s":"MODIS","n":0}},{"type":"Feature","geometry":{"type":"Point","coordinates":[124.6834,-17.8711]},"properties":{"d":"2026-09-20","t":"0037","frp":66.3,"b":329.3,"c":2,"s":"MODIS","n":0}},{"type":"Feature","geometry":{"type":"Point","coordinates":[124.6617,-17.8688]},"properties":{"d":"2026-09-20","t":"0037","frp":21.3,"b":317.2,"c":1,"s":"MODIS","n":0}},{"type":"Feature","geometry":{"type":"Point","coordinates":[124.5148,-17.6198]},"properties":{"d":"2026-09-20","t":"0037","frp":132.3,"b":343.0,"c":2,"s":"MODIS","n":0}},{"type":"Feature","geometry":{"type":"Point","coordinates":[124.4939,-17.6175]},"properties":{"d":"2026-09-20","t":"0037","frp":159.5,"b":347.6,"c":2,"s":"MODIS","n":0}},{"type":"Feature","geometry":{"type":"Point","coordinates":[124.5163,-17.6068]},"properties":{"d":"2026-09-20","t":"0037","frp":55.9,"b":328.0,"c":1,"s":"MODIS","n":0}},{"type":"Feature","geometry":{"type":"Point","coordinates":[124.4954,-17.6046]},"properties":{"d":"2026-09-20","t":"0037","frp":347.3,"b":369.7,"c":2,"s":"MODIS","n":0}},{"type":"Feature","geometry":{"type":"Point","coordinates":[124.4745,-17.6023]},"properties":{"d":"2026-09-20","t":"0037","frp":135.4,"b":344.4,"c":2,"s":"MODIS","n":0}},{"type":"Feature","geometry":{"type":"Point","coordinates":[124.5387,-17.5962]},"properties":{"d":"2026-09-20","t":"0037","frp":64.0,"b":329.8,"c":2,"s":"MODIS","n":0}},{"type":"Feature","geometry":{"type":"Point","coordinates":[124.5178,-17.5939]},"properties":{"d":"2026-09-20","t":"0037","frp":170.6,"b":349.6,"c":2,"s":"MODIS","n":0}},{"type":"Feature","geometry":{"type":"Point","coordinates":[124.4969,-17.5917]},"properties":{"d":"2026-09-20","t":"0037","frp":776.8,"b":398.8,"c":2,"s":"MODIS","n":0}},{"type":"Feature","geometry":{"type":"Point","coordinates":[124.476,-17.5894]},"properties":{"d":"2026-09-20","t":"0037","frp":207.6,"b":355.3,"c":2,"s":"MODIS","n":0}},{"type":"Feature","geometry":{"type":"Point","coordinates":[124.5192,-17.581]},"properties":{"d":"2026-09-20","t":"0037","frp":65.5,"b":330.7,"c":2,"s":"MODIS","n":0}},{"type":"Feature","geometry":{"type":"Point","coordinates":[124.402,-17.555]},"properties":{"d":"2026-09-20","t":"0037","frp":18.5,"b":320.2,"c":1,"s":"MODIS","n":0}},{"type":"Feature","geometry":{"type":"Point","coordinates":[124.3964,-17.5549]},"properties":{"d":"2026-09-20","t":"0037","frp":29.3,"b":323.0,"c":1,"s":"MODIS","n":0}},{"type":"Feature","geometry":{"type":"Point","coordinates":[124.5445,-17.5443]},"properties":{"d":"2026-09-20","t":"0037","frp":35.2,"b":322.8,"c":1,"s":"MODIS","n":0}},{"type":"Feature","geometry":{"type":"Point","coordinates":[124.5304,-17.5303]},"properties":{"d":"2026-09-20","t":"0037","frp":63.4,"b":330.2,"c":1,"s":"MODIS","n":0}},{"type":"Feature","geometry":{"type":"Point","coordinates":[124.3384,-17.523]},"properties":{"d":"2026-09-20","t":"0037","frp":22.4,"b":321.4,"c":1,"s":"MODIS","n":0}},{"type":"Feature","geometry":{"type":"Point","coordinates":[124.3181,-17.5208]},"properties":{"d":"2026-09-20","t":"0037","frp":26.4,"b":322.8,"c":1,"s":"MODIS","n":0}},{"type":"Feature","geometry":{"type":"Point","coordinates":[124.3238,-17.5204]},"properties":{"d":"2026-09-20","t":"0037","frp":42.9,"b":327.4,"c":1,"s":"MODIS","n":0}},{"type":"Feature","geometry":{"type":"Point","coordinates":[124.5111,-17.5151]},"properties":{"d":"2026-09-20","t":"0037","frp":33.5,"b":322.4,"c":1,"s":"MODIS","n":0}},{"type":"Feature","geometry":{"type":"Point","coordinates":[124.4904,-17.5128]},"properties":{"d":"2026-09-20","t":"0037","frp":49.6,"b":326.8,"c":1,"s":"MODIS","n":0}},{"type":"Feature","geometry":{"type":"Point","coordinates":[124.3454,-17.5099]},"properties":{"d":"2026-09-20","t":"0037","frp":42.3,"b":327.5,"c":1,"s":"MODIS","n":0}},{"type":"Feature","geometry":{"type":"Point","coordinates":[124.3469,-17.4972]},"properties":{"d":"2026-09-20","t":"0037","frp":77.4,"b":335.3,"c":2,"s":"MODIS","n":0}},{"type":"Feature","geometry":{"type":"Point","coordinates":[124.3484,-17.4844]},"properties":{"d":"2026-09-20","t":"0037","frp":25.9,"b":321.2,"c":1,"s":"MODIS","n":0}},{"type":"Feature","geometry":{"type":"Point","coordinates":[124.4109,-17.4782]},"properties":{"d":"2026-09-20","t":"0037","frp":116.4,"b":341.7,"c":2,"s":"MODIS","n":0}},{"type":"Feature","geometry":{"type":"Point","coordinates":[124.4329,-17.4676]},"properties":{"d":"2026-09-20","t":"0037","frp":23.6,"b":318.3,"c":1,"s":"MODIS","n":0}},{"type":"Feature","geometry":{"type":"Point","coordinates":[124.419,-17.4659]},"properties":{"d":"2026-09-20","t":"0037","frp":117.7,"b":341.1,"c":2,"s":"MODIS","n":0}},{"type":"Feature","geometry":{"type":"Point","coordinates":[124.4124,-17.4654]},"properties":{"d":"2026-09-20","t":"0037","frp":107.8,"b":339.5,"c":2,"s":"MODIS","n":0}},{"type":"Feature","geometry":{"type":"Point","coordinates":[123.087,-17.2635]},"properties":{"d":"2026-09-20","t":"0037","frp":44.2,"b":328.5,"c":1,"s":"MODIS","n":0}},{"type":"Feature","geometry":{"type":"Point","coordinates":[123.0708,-17.2616]},"properties":{"d":"2026-09-20","t":"0037","frp":36.4,"b":325.9,"c":1,"s":"MODIS","n":0}},{"type":"Feature","geometry":{"type":"Point","coordinates":[124.4893,-15.5333]},"properties":{"d":"2026-09-20","t":"0037","frp":22.9,"b":317.2,"c":1,"s":"MODIS","n":0}},{"type":"Feature","geometry":{"type":"Point","coordinates":[116.784,-20.5958]},"properties":{"d":"2026-09-20","t":"0039","frp":7.9,"b":316.3,"c":1,"s":"MODIS","n":0}},{"type":"Feature","geometry":{"type":"Point","coordinates":[119.925,-20.0027]},"properties":{"d":"2026-09-20","t":"0039","frp":10.5,"b":317.1,"c":1,"s":"MODIS","n":0}},{"type":"Feature","geometry":{"type":"Point","coordinates":[115.7925,-31.1694]},"properties":{"d":"2026-09-20","t":"0041","frp":10.9,"b":311.6,"c":1,"s":"MODIS","n":0}}]}