{"type":"FeatureCollection","features":[{"type":"Feature","geometry":{"type":"Point","coordinates":[153.3076,-11.4038]},"properties":{"d":"2026-09-17","t":"0241","frp":5.0,"b":329.0,"c":1,"s":"SNPP","n":0}},{"type":"Feature","geometry":{"type":"Point","coordinates":[152.8917,-9.2386]},"properties":{"d":"2026-09-17","t":"0241","frp":4.1,"b":326.3,"c":1,"s":"SNPP","n":0}},{"type":"Feature","geometry":{"type":"Point","coordinates":[132.1016,-14.696]},"properties":{"d":"2026-09-17","t":"0018","frp":29.6,"b":314.9,"c":1,"s":"MODIS","n":0}},{"type":"Feature","geometry":{"type":"Point","coordinates":[130.052,-14.0526]},"properties":{"d":"2026-09-17","t":"0018","frp":19.1,"b":315.0,"c":1,"s":"MODIS","n":0}},{"type":"Feature","geometry":{"type":"Point","coordinates":[131.8601,-13.1591]},"properties":{"d":"2026-09-17","t":"0018","frp":39.2,"b":317.4,"c":1,"s":"MODIS","n":0}},{"type":"Feature","geometry":{"type":"Point","coordinates":[131.8655,-13.1587]},"properties":{"d":"2026-09-17","t":"0018","frp":26.9,"b":314.9,"c":1,"s":"MODIS","n":0}},{"type":"Feature","geometry":{"type":"Point","coordinates":[132.1308,-12.9617]},"properties":{"d":"2026-09-17","t":"0018","frp":38.5,"b":316.4,"c":1,"s":"MODIS","n":0}},{"type":"Feature","geometry":{"type":"Point","coordinates":[132.1016,-12.9584]},"properties":{"d":"2026-09-17","t":"0018","frp":135.2,"b":332.3,"c":2,"s":"MODIS","n":0}},{"type":"Feature","geometry":{"type":"Point","coordinates":[132.1325,-12.9466]},"properties":{"d":"2026-09-17","t":"0018","frp":144.1,"b":333.8,"c":2,"s":"MODIS","n":0}},{"type":"Feature","geometry":{"type":"Point","coordinates":[132.1033,-12.9434]},"properties":{"d":"2026-09-17","t":"0018","frp":808.6,"b":380.2,"c":2,"s":"MODIS","n":0}},{"type":"Feature","geometry":{"type":"Point","coordinates":[132.1342,-12.9315]},"properties":{"d":"2026-09-17","t":"0018","frp":113.7,"b":330.8,"c":2,"s":"MODIS","n":0}},{"type":"Feature","geometry":{"type":"Point","coordinates":[132.1116,-12.9299]},"properties":{"d":"2026-09-17","t":"0018","frp":474.6,"b":363.0,"c":2,"s":"MODIS","n":0}},{"type":"Feature","geometry":{"type":"Point","coordinates":[132.1048,-12.9283]},"properties":{"d":"2026-09-17","t":"0018","frp":441.7,"b":361.1,"c":2,"s":"MODIS","n":0}},{"type":"Feature","geometry":{"type":"Point","coordinates":[132.1358,-12.9164]},"properties":{"d":"2026-09-17","t":"0018","frp":92.1,"b":328.3,"c":1,"s":"MODIS","n":0}},{"type":"Feature","geometry":{"type":"Point","coordinates":[132.1133,-12.9149]},"properties":{"d":"2026-09-17","t":"0018","frp":451.9,"b":362.1,"c":2,"s":"MODIS","n":0}},{"type":"Feature","geometry":{"type":"Point","coordinates":[132.1066,-12.9133]},"properties":{"d":"2026-09-17","t":"0018","frp":299.9,"b":350.8,"c":2,"s":"MODIS","n":0}},{"type":"Feature","geometry":{"type":"Point","coordinates":[132.115,-12.8999]},"properties":{"d":"2026-09-17","t":"0018","frp":82.7,"b":327.7,"c":1,"s":"MODIS","n":0}},{"type":"Feature","geometry":{"type":"Point","coordinates":[132.1083,-12.8983]},"properties":{"d":"2026-09-17","t":"0018","frp":67.1,"b":324.4,"c":1,"s":"MODIS","n":0}},{"type":"Feature","geometry":{"type":"Point","coordinates":[131.1746,-12.8262]},"properties":{"d":"2026-09-17","t":"0018","frp":31.1,"b":316.7,"c":1,"s":"MODIS","n":0}},{"type":"Feature","geometry":{"type":"Point","coordinates":[131.1502,-12.8235]},"properties":{"d":"2026-09-17","t":"0018","frp":164.7,"b":341.5,"c":2,"s":"MODIS","n":0}},{"type":"Feature","geometry":{"type":"Point","coordinates":[131.1578,-12.8183]},"properties":{"d":"2026-09-17","t":"0018","frp":216.1,"b":347.9,"c":2,"s":"MODIS","n":0}},{"type":"Feature","geometry":{"type":"Point","coordinates":[131.1334,-12.8154]},"properties":{"d":"2026-09-17","t":"0018","frp":21.1,"b":314.3,"c":1,"s":"MODIS","n":0}},{"type":"Feature","geometry":{"type":"Point","coordinates":[131.1519,-12.8096]},"properties":{"d":"2026-09-17","t":"0018","frp":43.1,"b":319.7,"c":1,"s":"MODIS","n":0}},{"type":"Feature","geometry":{"type":"Point","coordinates":[132.2909,-12.769]},"properties":{"d":"2026-09-17","t":"0018","frp":49.9,"b":319.4,"c":1,"s":"MODIS","n":0}},{"type":"Feature","geometry":{"type":"Point","coordinates":[132.2842,-12.7663]},"properties":{"d":"2026-09-17","t":"0018","frp":59.3,"b":320.3,"c":1,"s":"MODIS","n":0}},{"type":"Feature","geometry":{"type":"Point","coordinates":[132.2611,-12.7655]},"properties":{"d":"2026-09-17","t":"0018","frp":32.7,"b":316.8,"c":1,"s":"MODIS","n":0}},{"type":"Feature","geometry":{"type":"Point","coordinates":[132.9676,-12.7325]},"properties":{"d":"2026-09-17","t":"0018","frp":43.0,"b":314.0,"c":1,"s":"MODIS","n":0}},{"type":"Feature","geometry":{"type":"Point","coordinates":[132.9741,-12.7236]},"properties":{"d":"2026-09-17","t":"0018","frp":36.9,"b":313.4,"c":1,"s":"MODIS","n":0}},{"type":"Feature","geometry":{"type":"Point","coordinates":[130.6775,-12.4735]},"properties":{"d":"2026-09-17","t":"0018","frp":29.8,"b":318.2,"c":1,"s":"MODIS","n":0}},{"type":"Feature","geometry":{"type":"Point","coordinates":[130.6942,-12.4719]},"properties":{"d":"2026-09-17","t":"0018","frp":33.5,"b":319.3,"c":1,"s":"MODIS","n":0}},{"type":"Feature","geometry":{"type":"Point","coordinates":[130.6722,-12.4695]},"properties":{"d":"2026-09-17","t":"0018","frp":61.2,"b":326.4,"c":1,"s":"MODIS","n":0}},{"type":"Feature","geometry":{"type":"Point","coordinates":[130.679,-12.4601]},"properties":{"d":"2026-09-17","t":"0018","frp":45.6,"b":321.8,"c":1,"s":"MODIS","n":0}},{"type":"Feature","geometry":{"type":"Point","coordinates":[132.2545,-12.4463]},"properties":{"d":"2026-09-17","t":"0018","frp":44.2,"b":315.2,"c":1,"s":"MODIS","n":0}},{"type":"Feature","geometry":{"type":"Point","coordinates":[132.2492,-12.4446]},"properties":{"d":"2026-09-17","t":"0018","frp":31.0,"b":312.7,"c":1,"s":"MODIS","n":0}},{"type":"Feature","geometry":{"type":"Point","coordinates":[133.2372,-11.7985]},"properties":{"d":"2026-09-17","t":"0018","frp":42.2,"b":312.9,"c":1,"s":"MODIS","n":0}},{"type":"Feature","geometry":{"type":"Point","coordinates":[131.3513,-11.4536]},"properties":{"d":"2026-09-17","t":"0018","frp":22.3,"b":312.9,"c":1,"s":"MODIS","n":0}},{"type":"Feature","geometry":{"type":"Point","coordinates":[131.3276,-11.4509]},"properties":{"d":"2026-09-17","t":"0018","frp":31.4,"b":316.1,"c":1,"s":"MODIS","n":0}},{"type":"Feature","geometry":{"type":"Point","coordinates":[131.3338,-11.4447]},"properties":{"d":"2026-09-17","t":"0018","frp":46.7,"b":319.9,"c":1,"s":"MODIS","n":0}},{"type":"Feature","geometry":{"type":"Point","coordinates":[132.4468,-11.2278]},"properties":{"d":"2026-09-17","t":"0018","frp":26.9,"b":312.3,"c":0,"s":"MODIS","n":0}},{"type":"Feature","geometry":{"type":"Point","coordinates":[124.028,-9.4657]},"properties":{"d":"2026-09-17","t":"0018","frp":10.3,"b":318.1,"c":1,"s":"MODIS","n":0}},{"type":"Feature","geometry":{"type":"Point","coordinates":[132.3274,-21.6429]},"properties":{"d":"2026-09-17","t":"0020","frp":89.6,"b":315.4,"c":1,"s":"MODIS","n":0}},{"type":"Feature","geometry":{"type":"Point","coordinates":[132.2864,-21.6397]},"properties":{"d":"2026-09-17","t":"0020","frp":100.4,"b":317.1,"c":1,"s":"MODIS","n":0}},{"type":"Feature","geometry":{"type":"Point","coordinates":[132.2879,-21.6226]},"properties":{"d":"2026-09-17","t":"0020","frp":227.5,"b":331.5,"c":2,"s":"MODIS","n":0}},{"type":"Feature","geometry":{"type":"Point","coordinates":[132.2472,-21.6195]},"properties":{"d":"2026-09-17","t":"0020","frp":59.5,"b":311.9,"c":1,"s":"MODIS","n":0}},{"type":"Feature","geometry":{"type":"Point","coordinates":[132.2955,-21.6193]},"properties":{"d":"2026-09-17","t":"0020","frp":130.6,"b":322.1,"c":1,"s":"MODIS","n":0}},{"type":"Feature","geometry":{"type":"Point","coordinates":[132.2548,-21.6158]},"properties":{"d":"2026-09-17","t":"0020","frp":95.6,"b":317.8,"c":1,"s":"MODIS","n":0}},{"type":"Feature","geometry":{"type":"Point","coordinates":[128.5315,-21.4421]},"properties":{"d":"2026-09-17","t":"0020","frp":14.8,"b":312.1,"c":0,"s":"MODIS","n":0}},{"type":"Feature","geometry":{"type":"Point","coordinates":[132.5814,-21.0723]},"properties":{"d":"2026-09-17","t":"0020","frp":52.0,"b":309.3,"c":1,"s":"MODIS","n":0}},{"type":"Feature","geometry":{"type":"Point","coordinates":[132.5887,-21.0701]},"properties":{"d":"2026-09-17","t":"0020","frp":45.3,"b":308.3,"c":1,"s":"MODIS","n":0}},{"type":"Feature","geometry":{"type":"Point","coordinates":[123.7905,-20.5069]},"properties":{"d":"2026-09-17","t":"0020","frp":17.8,"b":325.9,"c":1,"s":"MODIS","n":0}},{"type":"Feature","geometry":{"type":"Point","coordinates":[123.7715,-20.4949]},"properties":{"d":"2026-09-17","t":"0020","frp":17.5,"b":325.5,"c":1,"s":"MODIS","n":0}},{"type":"Feature","geometry":{"type":"Point","coordinates":[129.6163,-20.2772]},"properties":{"d":"2026-09-17","t":"0020","frp":26.9,"b":313.0,"c":1,"s":"MODIS","n":0}},{"type":"Feature","geometry":{"type":"Point","coordinates":[127.6003,-19.5482]},"properties":{"d":"2026-09-17","t":"0020","frp":24.6,"b":320.5,"c":1,"s":"MODIS","n":0}},{"type":"Feature","geometry":{"type":"Point","coordinates":[127.5836,-19.5463]},"properties":{"d":"2026-09-17","t":"0020","frp":13.6,"b":315.4,"c":1,"s":"MODIS","n":0}},{"type":"Feature","geometry":{"type":"Point","coordinates":[128.2736,-18.4005]},"properties":{"d":"2026-09-17","t":"0020","frp":34.3,"b":323.1,"c":1,"s":"MODIS","n":0}},{"type":"Feature","geometry":{"type":"Point","coordinates":[130.715,-18.0564]},"properties":{"d":"2026-09-17","t":"0020","frp":27.3,"b":313.4,"c":1,"s":"MODIS","n":0}},{"type":"Feature","geometry":{"type":"Point","coordinates":[130.6892,-18.0392]},"properties":{"d":"2026-09-17","t":"0020","frp":26.4,"b":312.8,"c":1,"s":"MODIS","n":0}},{"type":"Feature","geometry":{"type":"Point","coordinates":[130.8447,-17.9492]},"properties":{"d":"2026-09-17","t":"0020","frp":25.8,"b":313.2,"c":1,"s":"MODIS","n":0}},{"type":"Feature","geometry":{"type":"Point","coordinates":[130.8504,-17.9479]},"properties":{"d":"2026-09-17","t":"0020","frp":24.6,"b":313.1,"c":1,"s":"MODIS","n":0}},{"type":"Feature","geometry":{"type":"Point","coordinates":[130.83,-17.872]},"properties":{"d":"2026-09-17","t":"0020","frp":19.8,"b":311.3,"c":1,"s":"MODIS","n":0}},{"type":"Feature","geometry":{"type":"Point","coordinates":[130.8094,-17.8678]},"properties":{"d":"2026-09-17","t":"0020","frp":22.5,"b":312.1,"c":1,"s":"MODIS","n":0}},{"type":"Feature","geometry":{"type":"Point","coordinates":[123.7571,-17.8432]},"properties":{"d":"2026-09-17","t":"0020","frp":8.2,"b":319.1,"c":1,"s":"MODIS","n":0}},{"type":"Feature","geometry":{"type":"Point","coordinates":[123.6125,-17.4736]},"properties":{"d":"2026-09-17","t":"0020","frp":19.2,"b":329.2,"c":1,"s":"MODIS","n":0}},{"type":"Feature","geometry":{"type":"Point","coordinates":[123.6232,-17.466]},"properties":{"d":"2026-09-17","t":"0020","frp":9.7,"b":320.7,"c":1,"s":"MODIS","n":0}},{"type":"Feature","geometry":{"type":"Point","coordinates":[123.6138,-17.4647]},"properties":{"d":"2026-09-17","t":"0020","frp":29.2,"b":335.7,"c":2,"s":"MODIS","n":0}},{"type":"Feature","geometry":{"type":"Point","coordinates":[130.5597,-17.3921]},"properties":{"d":"2026-09-17","t":"0020","frp":31.0,"b":314.0,"c":1,"s":"MODIS","n":0}},{"type":"Feature","geometry":{"type":"Point","coordinates":[130.8378,-16.2702]},"properties":{"d":"2026-09-17","t":"0020","frp":55.5,"b":321.5,"c":1,"s":"MODIS","n":0}},{"type":"Feature","geometry":{"type":"Point","coordinates":[130.8118,-16.2675]},"properties":{"d":"2026-09-17","t":"0020","frp":92.9,"b":328.5,"c":2,"s":"MODIS","n":0}},{"type":"Feature","geometry":{"type":"Point","coordinates":[130.3756,-15.8992]},"properties":{"d":"2026-09-17","t":"0020","frp":20.9,"b":315.4,"c":1,"s":"MODIS","n":0}},{"type":"Feature","geometry":{"type":"Point","coordinates":[130.3949,-15.895]},"properties":{"d":"2026-09-17","t":"0020","frp":23.5,"b":316.6,"c":1,"s":"MODIS","n":0}},{"type":"Feature","geometry":{"type":"Point","coordinates":[130.5091,-15.6763]},"properties":{"d":"2026-09-17","t":"0020","frp":18.5,"b":313.4,"c":1,"s":"MODIS","n":0}},{"type":"Feature","geometry":{"type":"Point","coordinates":[130.5237,-15.615]},"properties":{"d":"2026-09-17","t":"0020","frp":22.6,"b":314.0,"c":1,"s":"MODIS","n":0}},{"type":"Feature","geometry":{"type":"Point","coordinates":[124.52,-15.5261]},"properties":{"d":"2026-09-17","t":"0020","frp":14.9,"b":324.0,"c":1,"s":"MODIS","n":0}},{"type":"Feature","geometry":{"type":"Point","coordinates":[124.5105,-15.5249]},"properties":{"d":"2026-09-17","t":"0020","frp":9.1,"b":318.5,"c":1,"s":"MODIS","n":0}},{"type":"Feature","geometry":{"type":"Point","coordinates":[124.5516,-15.512]},"properties":{"d":"2026-09-17","t":"0020","frp":8.6,"b":319.6,"c":1,"s":"MODIS","n":0}},{"type":"Feature","geometry":{"type":"Point","coordinates":[124.5529,-15.5029]},"properties":{"d":"2026-09-17","t":"0020","frp":9.5,"b":320.4,"c":1,"s":"MODIS","n":0}},{"type":"Feature","geometry":{"type":"Point","coordinates":[128.8412,-15.5029]},"properties":{"d":"2026-09-17","t":"0020","frp":65.3,"b":332.6,"c":2,"s":"MODIS","n":0}},{"type":"Feature","geometry":{"type":"Point","coordinates":[128.8238,-15.5008]},"properties":{"d":"2026-09-17","t":"0020","frp":25.0,"b":319.2,"c":1,"s":"MODIS","n":0}},{"type":"Feature","geometry":{"type":"Point","coordinates":[128.8428,-15.4908]},"properties":{"d":"2026-09-17","t":"0020","frp":346.7,"b":376.2,"c":2,"s":"MODIS","n":0}},{"type":"Feature","geometry":{"type":"Point","coordinates":[128.8252,-15.4888]},"properties":{"d":"2026-09-17","t":"0020","frp":181.6,"b":356.1,"c":2,"s":"MODIS","n":0}},{"type":"Feature","geometry":{"type":"Point","coordinates":[118.4099,-32.2078]},"properties":{"d":"2026-09-17","t":"0024","frp":8.6,"b":310.4,"c":1,"s":"MODIS","n":0}},{"type":"Feature","geometry":{"type":"Point","coordinates":[116.0807,-32.1654]},"properties":{"d":"2026-09-17","t":"0024","frp":7.1,"b":307.2,"c":1,"s":"MODIS","n":0}}]}