{"type":"FeatureCollection","features":[{"type":"Feature","geometry":{"type":"Point","coordinates":[125.6372,-16.2336]},"properties":{"d":"2026-09-25","t":"0035","frp":33.4,"b":319.6,"c":1,"s":"MODIS","n":0}},{"type":"Feature","geometry":{"type":"Point","coordinates":[125.631,-16.2275]},"properties":{"d":"2026-09-25","t":"0035","frp":23.5,"b":316.9,"c":1,"s":"MODIS","n":0}},{"type":"Feature","geometry":{"type":"Point","coordinates":[125.5231,-16.2072]},"properties":{"d":"2026-09-25","t":"0035","frp":29.3,"b":317.7,"c":1,"s":"MODIS","n":0}},{"type":"Feature","geometry":{"type":"Point","coordinates":[125.623,-16.1359]},"properties":{"d":"2026-09-25","t":"0035","frp":19.9,"b":315.1,"c":1,"s":"MODIS","n":0}},{"type":"Feature","geometry":{"type":"Point","coordinates":[125.6294,-16.1279]},"properties":{"d":"2026-09-25","t":"0035","frp":61.7,"b":326.4,"c":1,"s":"MODIS","n":0}},{"type":"Feature","geometry":{"type":"Point","coordinates":[125.6066,-16.1254]},"properties":{"d":"2026-09-25","t":"0035","frp":129.8,"b":339.2,"c":2,"s":"MODIS","n":0}},{"type":"Feature","geometry":{"type":"Point","coordinates":[125.6245,-16.1223]},"properties":{"d":"2026-09-25","t":"0035","frp":84.3,"b":331.4,"c":2,"s":"MODIS","n":0}},{"type":"Feature","geometry":{"type":"Point","coordinates":[125.602,-16.12]},"properties":{"d":"2026-09-25","t":"0035","frp":110.4,"b":336.2,"c":2,"s":"MODIS","n":0}},{"type":"Feature","geometry":{"type":"Point","coordinates":[125.6308,-16.1144]},"properties":{"d":"2026-09-25","t":"0035","frp":24.6,"b":315.8,"c":1,"s":"MODIS","n":0}},{"type":"Feature","geometry":{"type":"Point","coordinates":[125.6082,-16.1119]},"properties":{"d":"2026-09-25","t":"0035","frp":40.8,"b":320.4,"c":1,"s":"MODIS","n":0}},{"type":"Feature","geometry":{"type":"Point","coordinates":[124.4614,-15.6302]},"properties":{"d":"2026-09-25","t":"0035","frp":12.0,"b":314.6,"c":0,"s":"MODIS","n":0}},{"type":"Feature","geometry":{"type":"Point","coordinates":[124.4853,-15.5832]},"properties":{"d":"2026-09-25","t":"0035","frp":42.4,"b":326.9,"c":1,"s":"MODIS","n":0}},{"type":"Feature","geometry":{"type":"Point","coordinates":[124.4865,-15.5709]},"properties":{"d":"2026-09-25","t":"0035","frp":69.6,"b":333.9,"c":2,"s":"MODIS","n":0}},{"type":"Feature","geometry":{"type":"Point","coordinates":[125.1692,-9.1075]},"properties":{"d":"2026-09-25","t":"0035","frp":19.0,"b":313.4,"c":1,"s":"MODIS","n":0}},{"type":"Feature","geometry":{"type":"Point","coordinates":[115.2989,-21.6972]},"properties":{"d":"2026-09-25","t":"0037","frp":6.2,"b":314.6,"c":1,"s":"MODIS","n":0}},{"type":"Feature","geometry":{"type":"Point","coordinates":[115.2887,-21.6956]},"properties":{"d":"2026-09-25","t":"0037","frp":7.9,"b":316.9,"c":1,"s":"MODIS","n":0}},{"type":"Feature","geometry":{"type":"Point","coordinates":[115.3168,-21.692]},"properties":{"d":"2026-09-25","t":"0037","frp":6.7,"b":316.9,"c":1,"s":"MODIS","n":0}},{"type":"Feature","geometry":{"type":"Point","coordinates":[126.8494,-20.4032]},"properties":{"d":"2026-09-25","t":"0037","frp":51.3,"b":319.7,"c":1,"s":"MODIS","n":0}},{"type":"Feature","geometry":{"type":"Point","coordinates":[126.8443,-20.3976]},"properties":{"d":"2026-09-25","t":"0037","frp":63.0,"b":321.8,"c":1,"s":"MODIS","n":0}},{"type":"Feature","geometry":{"type":"Point","coordinates":[126.3935,-20.3925]},"properties":{"d":"2026-09-25","t":"0037","frp":128.5,"b":332.0,"c":2,"s":"MODIS","n":0}},{"type":"Feature","geometry":{"type":"Point","coordinates":[126.3881,-20.3902]},"properties":{"d":"2026-09-25","t":"0037","frp":222.2,"b":342.1,"c":2,"s":"MODIS","n":0}},{"type":"Feature","geometry":{"type":"Point","coordinates":[126.3628,-20.3896]},"properties":{"d":"2026-09-25","t":"0037","frp":253.0,"b":345.6,"c":2,"s":"MODIS","n":0}},{"type":"Feature","geometry":{"type":"Point","coordinates":[126.3574,-20.3875]},"properties":{"d":"2026-09-25","t":"0037","frp":185.9,"b":338.4,"c":2,"s":"MODIS","n":0}},{"type":"Feature","geometry":{"type":"Point","coordinates":[126.8508,-20.3874]},"properties":{"d":"2026-09-25","t":"0037","frp":39.6,"b":318.6,"c":0,"s":"MODIS","n":0}},{"type":"Feature","geometry":{"type":"Point","coordinates":[126.5152,-20.3857]},"properties":{"d":"2026-09-25","t":"0037","frp":45.5,"b":318.8,"c":1,"s":"MODIS","n":0}},{"type":"Feature","geometry":{"type":"Point","coordinates":[126.3949,-20.3773]},"properties":{"d":"2026-09-25","t":"0037","frp":106.9,"b":329.4,"c":1,"s":"MODIS","n":0}},{"type":"Feature","geometry":{"type":"Point","coordinates":[126.3896,-20.3749]},"properties":{"d":"2026-09-25","t":"0037","frp":148.5,"b":334.9,"c":2,"s":"MODIS","n":0}},{"type":"Feature","geometry":{"type":"Point","coordinates":[126.3643,-20.3744]},"properties":{"d":"2026-09-25","t":"0037","frp":130.5,"b":332.6,"c":2,"s":"MODIS","n":0}},{"type":"Feature","geometry":{"type":"Point","coordinates":[126.522,-20.3735]},"properties":{"d":"2026-09-25","t":"0037","frp":1339.4,"b":396.8,"c":2,"s":"MODIS","n":0}},{"type":"Feature","geometry":{"type":"Point","coordinates":[126.5487,-20.373]},"properties":{"d":"2026-09-25","t":"0037","frp":65.5,"b":322.4,"c":1,"s":"MODIS","n":0}},{"type":"Feature","geometry":{"type":"Point","coordinates":[126.3589,-20.3722]},"properties":{"d":"2026-09-25","t":"0037","frp":65.0,"b":323.2,"c":1,"s":"MODIS","n":0}},{"type":"Feature","geometry":{"type":"Point","coordinates":[126.4901,-20.3706]},"properties":{"d":"2026-09-25","t":"0037","frp":320.1,"b":350.7,"c":2,"s":"MODIS","n":0}},{"type":"Feature","geometry":{"type":"Point","coordinates":[126.5168,-20.3703]},"properties":{"d":"2026-09-25","t":"0037","frp":1308.3,"b":395.8,"c":2,"s":"MODIS","n":0}},{"type":"Feature","geometry":{"type":"Point","coordinates":[126.3964,-20.362]},"properties":{"d":"2026-09-25","t":"0037","frp":70.8,"b":324.0,"c":1,"s":"MODIS","n":0}},{"type":"Feature","geometry":{"type":"Point","coordinates":[126.3657,-20.3591]},"properties":{"d":"2026-09-25","t":"0037","frp":63.1,"b":322.5,"c":1,"s":"MODIS","n":0}},{"type":"Feature","geometry":{"type":"Point","coordinates":[126.5235,-20.3581]},"properties":{"d":"2026-09-25","t":"0037","frp":514.3,"b":363.9,"c":2,"s":"MODIS","n":0}},{"type":"Feature","geometry":{"type":"Point","coordinates":[126.4918,-20.3553]},"properties":{"d":"2026-09-25","t":"0037","frp":198.9,"b":341.0,"c":2,"s":"MODIS","n":0}},{"type":"Feature","geometry":{"type":"Point","coordinates":[126.3979,-20.3467]},"properties":{"d":"2026-09-25","t":"0037","frp":158.7,"b":337.1,"c":2,"s":"MODIS","n":0}},{"type":"Feature","geometry":{"type":"Point","coordinates":[126.5568,-20.3456]},"properties":{"d":"2026-09-25","t":"0037","frp":71.3,"b":324.4,"c":1,"s":"MODIS","n":0}},{"type":"Feature","geometry":{"type":"Point","coordinates":[126.3671,-20.3439]},"properties":{"d":"2026-09-25","t":"0037","frp":75.1,"b":326.1,"c":1,"s":"MODIS","n":0}},{"type":"Feature","geometry":{"type":"Point","coordinates":[126.525,-20.3427]},"properties":{"d":"2026-09-25","t":"0037","frp":177.9,"b":338.3,"c":2,"s":"MODIS","n":0}},{"type":"Feature","geometry":{"type":"Point","coordinates":[126.4933,-20.3399]},"properties":{"d":"2026-09-25","t":"0037","frp":132.4,"b":334.4,"c":1,"s":"MODIS","n":0}},{"type":"Feature","geometry":{"type":"Point","coordinates":[126.3994,-20.3315]},"properties":{"d":"2026-09-25","t":"0037","frp":83.9,"b":327.7,"c":1,"s":"MODIS","n":0}},{"type":"Feature","geometry":{"type":"Point","coordinates":[126.5331,-20.3311]},"properties":{"d":"2026-09-25","t":"0037","frp":113.1,"b":331.5,"c":1,"s":"MODIS","n":0}},{"type":"Feature","geometry":{"type":"Point","coordinates":[126.5581,-20.3301]},"properties":{"d":"2026-09-25","t":"0037","frp":59.5,"b":322.3,"c":0,"s":"MODIS","n":0}},{"type":"Feature","geometry":{"type":"Point","coordinates":[126.317,-20.2951]},"properties":{"d":"2026-09-25","t":"0037","frp":258.6,"b":347.2,"c":2,"s":"MODIS","n":0}},{"type":"Feature","geometry":{"type":"Point","coordinates":[126.6333,-20.2937]},"properties":{"d":"2026-09-25","t":"0037","frp":55.2,"b":320.9,"c":1,"s":"MODIS","n":0}},{"type":"Feature","geometry":{"type":"Point","coordinates":[126.3102,-20.2928]},"properties":{"d":"2026-09-25","t":"0037","frp":428.3,"b":360.1,"c":2,"s":"MODIS","n":0}},{"type":"Feature","geometry":{"type":"Point","coordinates":[126.2865,-20.2922]},"properties":{"d":"2026-09-25","t":"0037","frp":628.2,"b":372.0,"c":2,"s":"MODIS","n":0}},{"type":"Feature","geometry":{"type":"Point","coordinates":[126.6006,-20.2907]},"properties":{"d":"2026-09-25","t":"0037","frp":586.0,"b":367.3,"c":2,"s":"MODIS","n":0}},{"type":"Feature","geometry":{"type":"Point","coordinates":[126.2798,-20.2902]},"properties":{"d":"2026-09-25","t":"0037","frp":449.4,"b":361.5,"c":2,"s":"MODIS","n":0}},{"type":"Feature","geometry":{"type":"Point","coordinates":[126.6266,-20.2892]},"properties":{"d":"2026-09-25","t":"0037","frp":200.8,"b":339.4,"c":2,"s":"MODIS","n":0}},{"type":"Feature","geometry":{"type":"Point","coordinates":[126.594,-20.2864]},"properties":{"d":"2026-09-25","t":"0037","frp":699.4,"b":372.9,"c":2,"s":"MODIS","n":0}},{"type":"Feature","geometry":{"type":"Point","coordinates":[126.9763,-20.2825]},"properties":{"d":"2026-09-25","t":"0037","frp":50.9,"b":321.1,"c":1,"s":"MODIS","n":0}},{"type":"Feature","geometry":{"type":"Point","coordinates":[126.3183,-20.2799]},"properties":{"d":"2026-09-25","t":"0037","frp":193.3,"b":341.4,"c":2,"s":"MODIS","n":0}},{"type":"Feature","geometry":{"type":"Point","coordinates":[126.6346,-20.2781]},"properties":{"d":"2026-09-25","t":"0037","frp":64.2,"b":322.5,"c":1,"s":"MODIS","n":0}},{"type":"Feature","geometry":{"type":"Point","coordinates":[126.3117,-20.2777]},"properties":{"d":"2026-09-25","t":"0037","frp":245.2,"b":346.2,"c":2,"s":"MODIS","n":0}},{"type":"Feature","geometry":{"type":"Point","coordinates":[126.288,-20.2771]},"properties":{"d":"2026-09-25","t":"0037","frp":330.1,"b":353.6,"c":2,"s":"MODIS","n":0}},{"type":"Feature","geometry":{"type":"Point","coordinates":[126.602,-20.2752]},"properties":{"d":"2026-09-25","t":"0037","frp":743.1,"b":374.9,"c":2,"s":"MODIS","n":0}},{"type":"Feature","geometry":{"type":"Point","coordinates":[126.2813,-20.275]},"properties":{"d":"2026-09-25","t":"0037","frp":172.4,"b":338.9,"c":2,"s":"MODIS","n":0}},{"type":"Feature","geometry":{"type":"Point","coordinates":[126.6035,-20.2597]},"properties":{"d":"2026-09-25","t":"0037","frp":69.2,"b":324.3,"c":1,"s":"MODIS","n":0}},{"type":"Feature","geometry":{"type":"Point","coordinates":[126.3516,-20.2524]},"properties":{"d":"2026-09-25","t":"0037","frp":55.2,"b":323.9,"c":1,"s":"MODIS","n":0}},{"type":"Feature","geometry":{"type":"Point","coordinates":[126.3531,-20.2372]},"properties":{"d":"2026-09-25","t":"0037","frp":110.8,"b":331.9,"c":1,"s":"MODIS","n":0}},{"type":"Feature","geometry":{"type":"Point","coordinates":[126.6785,-20.2231]},"properties":{"d":"2026-09-25","t":"0037","frp":109.1,"b":329.0,"c":1,"s":"MODIS","n":0}},{"type":"Feature","geometry":{"type":"Point","coordinates":[126.6736,-20.2189]},"properties":{"d":"2026-09-25","t":"0037","frp":180.4,"b":337.6,"c":2,"s":"MODIS","n":0}},{"type":"Feature","geometry":{"type":"Point","coordinates":[126.68,-20.2076]},"properties":{"d":"2026-09-25","t":"0037","frp":78.4,"b":325.1,"c":1,"s":"MODIS","n":0}},{"type":"Feature","geometry":{"type":"Point","coordinates":[126.6475,-20.2046]},"properties":{"d":"2026-09-25","t":"0037","frp":46.3,"b":320.9,"c":1,"s":"MODIS","n":0}}]}