{"type":"FeatureCollection","features":[{"type":"Feature","geometry":{"type":"Point","coordinates":[119.7417,-9.7231]},"properties":{"d":"2026-09-18","t":"0054","frp":20.4,"b":313.6,"c":1,"s":"MODIS","n":0}},{"type":"Feature","geometry":{"type":"Point","coordinates":[120.7107,-23.5044]},"properties":{"d":"2026-09-18","t":"0058","frp":49.0,"b":317.6,"c":1,"s":"MODIS","n":0}},{"type":"Feature","geometry":{"type":"Point","coordinates":[120.6786,-23.5017]},"properties":{"d":"2026-09-18","t":"0058","frp":99.4,"b":326.2,"c":1,"s":"MODIS","n":0}},{"type":"Feature","geometry":{"type":"Point","coordinates":[120.7057,-23.5012]},"properties":{"d":"2026-09-18","t":"0058","frp":78.7,"b":322.8,"c":1,"s":"MODIS","n":0}},{"type":"Feature","geometry":{"type":"Point","coordinates":[120.6735,-23.4987]},"properties":{"d":"2026-09-18","t":"0058","frp":81.5,"b":323.3,"c":1,"s":"MODIS","n":0}},{"type":"Feature","geometry":{"type":"Point","coordinates":[120.8871,-30.2744]},"properties":{"d":"2026-09-18","t":"0102","frp":14.6,"b":305.3,"c":0,"s":"MODIS","n":0}},{"type":"Feature","geometry":{"type":"Point","coordinates":[120.8948,-30.2697]},"properties":{"d":"2026-09-18","t":"0102","frp":18.3,"b":305.9,"c":1,"s":"MODIS","n":0}}]}