{"type":"FeatureCollection","features":[{"type":"Feature","geometry":{"type":"Point","coordinates":[115.2667,-21.7129]},"properties":{"d":"2026-09-23","t":"0056","frp":79.5,"b":351.0,"c":2,"s":"MODIS","n":0}},{"type":"Feature","geometry":{"type":"Point","coordinates":[121.1365,-31.6343]},"properties":{"d":"2026-09-23","t":"0100","frp":23.8,"b":300.1,"c":0,"s":"MODIS","n":0}},{"type":"Feature","geometry":{"type":"Point","coordinates":[121.1437,-31.6305]},"properties":{"d":"2026-09-23","t":"0100","frp":31.4,"b":301.9,"c":1,"s":"MODIS","n":0}},{"type":"Feature","geometry":{"type":"Point","coordinates":[121.1374,-31.6173]},"properties":{"d":"2026-09-23","t":"0100","frp":23.8,"b":300.1,"c":0,"s":"MODIS","n":0}},{"type":"Feature","geometry":{"type":"Point","coordinates":[121.6142,-31.14]},"properties":{"d":"2026-09-23","t":"0100","frp":20.7,"b":302.3,"c":0,"s":"MODIS","n":0}},{"type":"Feature","geometry":{"type":"Point","coordinates":[120.3552,-29.9483]},"properties":{"d":"2026-09-23","t":"0100","frp":24.5,"b":305.4,"c":1,"s":"MODIS","n":0}}]}